[{"OBJECT_NAME":"KENT RIDGE 1","OBJECT_ID":"2015-077B","EPOCH":"2026-03-03T21:42:08.832096","MEAN_MOTION":15.22394504,"ECCENTRICITY":0.000841,"INCLINATION":14.9805,"RA_OF_ASC_NODE":328.5648,"ARG_OF_PERICENTER":195.0629,"MEAN_ANOMALY":164.9443,"EPHEMERIS_TYPE":0,"CLASSIFICATION_TYPE":"U","NORAD_CAT_ID":41167,"ELEMENT_SET_NO":999,"REV_AT_EPOCH":56502,"BSTAR":0.00022145,"MEAN_MOTION_DOT":6.039e-5,"MEAN_MOTION_DDOT":0},{"OBJECT_NAME":"GAOFEN-4","OBJECT_ID":"2015-083A","EPOCH":"2026-03-03T21:03:38.802816","MEAN_MOTION":1.00269657,"ECCENTRICITY":0.000367,"INCLINATION":0.3783,"RA_OF_ASC_NODE":83.8116,"ARG_OF_PERICENTER":85.5601,"MEAN_ANOMALY":53.8467,"EPHEMERIS_TYPE":0,"CLASSIFICATION_TYPE":"U","NORAD_CAT_ID":41194,"ELEMENT_SET_NO":999,"REV_AT_EPOCH":3747,"BSTAR":0,"MEAN_MOTION_DOT":-3.48e-6,"MEAN_MOTION_DDOT":0},{"OBJECT_NAME":"JASON-3","OBJECT_ID":"2016-002A","EPOCH":"2026-03-03T20:06:07.233408","MEAN_MOTION":12.87628113,"ECCENTRICITY":0.0007837,"INCLINATION":66.0449,"RA_OF_ASC_NODE":347.3237,"ARG_OF_PERICENTER":276.7959,"MEAN_ANOMALY":83.2168,"EPHEMERIS_TYPE":0,"CLASSIFICATION_TYPE":"U","NORAD_CAT_ID":41240,"ELEMENT_SET_NO":999,"REV_AT_EPOCH":47368,"BSTAR":8.658e-5,"MEAN_MOTION_DOT":-4.0e-7,"MEAN_MOTION_DDOT":0},{"OBJECT_NAME":"SENTINEL-3A","OBJECT_ID":"2016-011A","EPOCH":"2026-03-03T19:28:17.287680","MEAN_MOTION":14.26739277,"ECCENTRICITY":0.0001234,"INCLINATION":98.624,"RA_OF_ASC_NODE":131.6834,"ARG_OF_PERICENTER":100.5118,"MEAN_ANOMALY":259.6201,"EPHEMERIS_TYPE":0,"CLASSIFICATION_TYPE":"U","NORAD_CAT_ID":41335,"ELEMENT_SET_NO":999,"REV_AT_EPOCH":52303,"BSTAR":8.363e-5,"MEAN_MOTION_DOT":1.59e-6,"MEAN_MOTION_DDOT":0},{"OBJECT_NAME":"ZIYUAN 3-02 (ZY 3-02)","OBJECT_ID":"2016-033A","EPOCH":"2026-03-03T21:17:11.423328","MEAN_MOTION":15.21452433,"ECCENTRICITY":0.0011327,"INCLINATION":97.3914,"RA_OF_ASC_NODE":140.6468,"ARG_OF_PERICENTER":321.6825,"MEAN_ANOMALY":38.3605,"EPHEMERIS_TYPE":0,"CLASSIFICATION_TYPE":"U","NORAD_CAT_ID":41556,"ELEMENT_SET_NO":999,"REV_AT_EPOCH":54197,"BSTAR":0.00043527,"MEAN_MOTION_DOT":9.732e-5,"MEAN_MOTION_DDOT":0},{"OBJECT_NAME":"CARTOSAT-2C","OBJECT_ID":"2016-040A","EPOCH":"2026-03-03T19:25:44.699232","MEAN_MOTION":15.1929369,"ECCENTRICITY":0.0010481,"INCLINATION":97.4621,"RA_OF_ASC_NODE":124.165,"ARG_OF_PERICENTER":140.9576,"MEAN_ANOMALY":219.2417,"EPHEMERIS_TYPE":0,"CLASSIFICATION_TYPE":"U","NORAD_CAT_ID":41599,"ELEMENT_SET_NO":999,"REV_AT_EPOCH":53771,"BSTAR":0.00023138,"MEAN_MOTION_DOT":4.821e-5,"MEAN_MOTION_DDOT":0},{"OBJECT_NAME":"SKYSAT-C1","OBJECT_ID":"2016-040C","EPOCH":"2026-03-03T15:15:55.064736","MEAN_MOTION":15.34362051,"ECCENTRICITY":0.0003961,"INCLINATION":96.9705,"RA_OF_ASC_NODE":100.1375,"ARG_OF_PERICENTER":65.3979,"MEAN_ANOMALY":294.7678,"EPHEMERIS_TYPE":0,"CLASSIFICATION_TYPE":"U","NORAD_CAT_ID":41601,"ELEMENT_SET_NO":999,"REV_AT_EPOCH":54167,"BSTAR":0.00038437,"MEAN_MOTION_DOT":0.00012726,"MEAN_MOTION_DDOT":0},{"OBJECT_NAME":"LAPAN-A3","OBJECT_ID":"2016-040E","EPOCH":"2026-03-03T21:16:47.270208","MEAN_MOTION":15.32316244,"ECCENTRICITY":0.0011708,"INCLINATION":97.1473,"RA_OF_ASC_NODE":62.5604,"ARG_OF_PERICENTER":41.7736,"MEAN_ANOMALY":318.4398,"EPHEMERIS_TYPE":0,"CLASSIFICATION_TYPE":"U","NORAD_CAT_ID":41603,"ELEMENT_SET_NO":999,"REV_AT_EPOCH":53868,"BSTAR":0.0001728,"MEAN_MOTION_DOT":5.327e-5,"MEAN_MOTION_DDOT":0},{"OBJECT_NAME":"GAOFEN-3","OBJECT_ID":"2016-049A","EPOCH":"2026-03-03T20:06:20.484576","MEAN_MOTION":14.42214068,"ECCENTRICITY":0.0001619,"INCLINATION":98.4047,"RA_OF_ASC_NODE":72.1974,"ARG_OF_PERICENTER":95.3442,"MEAN_ANOMALY":264.7932,"EPHEMERIS_TYPE":0,"CLASSIFICATION_TYPE":"U","NORAD_CAT_ID":41727,"ELEMENT_SET_NO":999,"REV_AT_EPOCH":50346,"BSTAR":9.4177e-6,"MEAN_MOTION_DOT":-1.2e-7,"MEAN_MOTION_DDOT":0},{"OBJECT_NAME":"SKYSAT-C4","OBJECT_ID":"2016-058B","EPOCH":"2026-03-03T15:11:29.208480","MEAN_MOTION":15.45117826,"ECCENTRICITY":8.98e-5,"INCLINATION":96.9288,"RA_OF_ASC_NODE":89.0114,"ARG_OF_PERICENTER":81.9993,"MEAN_ANOMALY":278.1359,"EPHEMERIS_TYPE":0,"CLASSIFICATION_TYPE":"U","NORAD_CAT_ID":41771,"ELEMENT_SET_NO":999,"REV_AT_EPOCH":52915,"BSTAR":0.00044216,"MEAN_MOTION_DOT":0.00020875,"MEAN_MOTION_DDOT":0},{"OBJECT_NAME":"SKYSAT-C5","OBJECT_ID":"2016-058C","EPOCH":"2026-03-03T16:40:20.789184","MEAN_MOTION":15.34150166,"ECCENTRICITY":0.000189,"INCLINATION":97.0624,"RA_OF_ASC_NODE":108.0178,"ARG_OF_PERICENTER":85.7555,"MEAN_ANOMALY":274.3905,"EPHEMERIS_TYPE":0,"CLASSIFICATION_TYPE":"U","NORAD_CAT_ID":41772,"ELEMENT_SET_NO":999,"REV_AT_EPOCH":52757,"BSTAR":0.00034742,"MEAN_MOTION_DOT":0.00011413,"MEAN_MOTION_DDOT":0},{"OBJECT_NAME":"SKYSAT-C2","OBJECT_ID":"2016-058D","EPOCH":"2026-03-03T14:22:19.307712","MEAN_MOTION":15.39503714,"ECCENTRICITY":0.0005303,"INCLINATION":97.0281,"RA_OF_ASC_NODE":88.7915,"ARG_OF_PERICENTER":81.4883,"MEAN_ANOMALY":278.6964,"EPHEMERIS_TYPE":0,"CLASSIFICATION_TYPE":"U","NORAD_CAT_ID":41773,"ELEMENT_SET_NO":999,"REV_AT_EPOCH":52879,"BSTAR":0.00041141,"MEAN_MOTION_DOT":0.00016092,"MEAN_MOTION_DDOT":0},{"OBJECT_NAME":"SKYSAT-C3","OBJECT_ID":"2016-058E","EPOCH":"2026-03-03T14:40:42.861216","MEAN_MOTION":15.47994897,"ECCENTRICITY":0.0001508,"INCLINATION":96.9184,"RA_OF_ASC_NODE":97.7412,"ARG_OF_PERICENTER":101.3682,"MEAN_ANOMALY":258.7739,"EPHEMERIS_TYPE":0,"CLASSIFICATION_TYPE":"U","NORAD_CAT_ID":41774,"ELEMENT_SET_NO":999,"REV_AT_EPOCH":52975,"BSTAR":0.00050606,"MEAN_MOTION_DOT":0.00026407,"MEAN_MOTION_DDOT":0},{"OBJECT_NAME":"ALSAT-1B","OBJECT_ID":"2016-059C","EPOCH":"2026-03-03T21:27:16.928352","MEAN_MOTION":14.7217994,"ECCENTRICITY":0.0008639,"INCLINATION":97.78,"RA_OF_ASC_NODE":76.187,"ARG_OF_PERICENTER":196.7257,"MEAN_ANOMALY":163.3667,"EPHEMERIS_TYPE":0,"CLASSIFICATION_TYPE":"U","NORAD_CAT_ID":41785,"ELEMENT_SET_NO":999,"REV_AT_EPOCH":50508,"BSTAR":8.6429e-5,"MEAN_MOTION_DOT":4.98e-6,"MEAN_MOTION_DDOT":0},{"OBJECT_NAME":"PATHFINDER 1","OBJECT_ID":"2016-059E","EPOCH":"2026-03-03T14:15:20.966688","MEAN_MOTION":14.67505435,"ECCENTRICITY":0.0028429,"INCLINATION":97.8174,"RA_OF_ASC_NODE":66.6449,"ARG_OF_PERICENTER":180.0725,"MEAN_ANOMALY":180.0481,"EPHEMERIS_TYPE":0,"CLASSIFICATION_TYPE":"U","NORAD_CAT_ID":41787,"ELEMENT_SET_NO":999,"REV_AT_EPOCH":50422,"BSTAR":0.00019325,"MEAN_MOTION_DOT":1.055e-5,"MEAN_MOTION_DDOT":0},{"OBJECT_NAME":"SCATSAT 1","OBJECT_ID":"2016-059H","EPOCH":"2026-03-03T16:49:49.405728","MEAN_MOTION":14.79240206,"ECCENTRICITY":0.0054045,"INCLINATION":98.1316,"RA_OF_ASC_NODE":125.3441,"ARG_OF_PERICENTER":227.0579,"MEAN_ANOMALY":132.6092,"EPHEMERIS_TYPE":0,"CLASSIFICATION_TYPE":"U","NORAD_CAT_ID":41790,"ELEMENT_SET_NO":999,"REV_AT_EPOCH":8599,"BSTAR":0.00026235,"MEAN_MOTION_DOT":1.94e-5,"MEAN_MOTION_DDOT":0},{"OBJECT_NAME":"GOKTURK 1A","OBJECT_ID":"2016-073A","EPOCH":"2026-03-03T21:41:16.196352","MEAN_MOTION":14.6274199,"ECCENTRICITY":0.0001494,"INCLINATION":98.1378,"RA_OF_ASC_NODE":319.1623,"ARG_OF_PERICENTER":94.1707,"MEAN_ANOMALY":265.9665,"EPHEMERIS_TYPE":0,"CLASSIFICATION_TYPE":"U","NORAD_CAT_ID":41875,"ELEMENT_SET_NO":999,"REV_AT_EPOCH":49343,"BSTAR":8.729e-5,"MEAN_MOTION_DOT":3.98e-6,"MEAN_MOTION_DDOT":0}]
