KENT RIDGE 1            
1 41167U 15077B   26062.90426889  .00006039  00000+0  22145-3 0  9995
2 41167  14.9805 328.5648 0008410 195.0629 164.9443 15.22394504565023
GAOFEN-4                
1 41194U 15083A   26062.87753244 -.00000348  00000+0  00000+0 0  9996
2 41194   0.3783  83.8116 0003670  85.5601  53.8467  1.00269657 37470
JASON-3                 
1 41240U 16002A   26062.83758372 -.00000040  00000+0  86580-4 0  9994
2 41240  66.0449 347.3237 0007837 276.7959  83.2168 12.87628113473686
SENTINEL-3A             
1 41335U 16011A   26062.81131120  .00000159  00000+0  83630-4 0  9996
2 41335  98.6240 131.6834 0001234 100.5118 259.6201 14.26739277523035
ZIYUAN 3-02 (ZY 3-02)   
1 41556U 16033A   26062.88693777  .00009732  00000+0  43527-3 0  9999
2 41556  97.3914 140.6468 0011327 321.6825  38.3605 15.21452433541977
CARTOSAT-2C             
1 41599U 16040A   26062.80954513  .00004821  00000+0  23138-3 0  9994
2 41599  97.4621 124.1650 0010481 140.9576 219.2417 15.19293690537718
SKYSAT-C1               
1 41601U 16040C   26062.63605399  .00012726  00000+0  38437-3 0  9995
2 41601  96.9705 100.1375 0003961  65.3979 294.7678 15.34362051541671
LAPAN-A3                
1 41603U 16040E   26062.88665822  .00005327  00000+0  17280-3 0  9993
2 41603  97.1473  62.5604 0011708  41.7736 318.4398 15.32316244538682
GAOFEN-3                
1 41727U 16049A   26062.83773709 -.00000012  00000+0  94177-5 0  9997
2 41727  98.4047  72.1974 0001619  95.3442 264.7932 14.42214068503462
SKYSAT-C4               
1 41771U 16058B   26062.63297695  .00020875  00000+0  44216-3 0  9994
2 41771  96.9288  89.0114 0000898  81.9993 278.1359 15.45117826529158
SKYSAT-C5               
1 41772U 16058C   26062.69468506  .00011413  00000+0  34742-3 0  9993
2 41772  97.0624 108.0178 0001890  85.7555 274.3905 15.34150166527577
SKYSAT-C2               
1 41773U 16058D   26062.59883458  .00016092  00000+0  41141-3 0  9999
2 41773  97.0281  88.7915 0005303  81.4883 278.6964 15.39503714528793
SKYSAT-C3               
1 41774U 16058E   26062.61160719  .00026407  00000+0  50606-3 0  9998
2 41774  96.9184  97.7412 0001508 101.3682 258.7739 15.47994897529759
ALSAT-1B                
1 41785U 16059C   26062.89394593  .00000498  00000+0  86429-4 0  9995
2 41785  97.7800  76.1870 0008639 196.7257 163.3667 14.72179940505084
PATHFINDER 1            
1 41787U 16059E   26062.59399267  .00001055  00000+0  19325-3 0  9997
2 41787  97.8174  66.6449 0028429 180.0725 180.0481 14.67505435504223
SCATSAT 1               
1 41790U 16059H   26062.70126627  .00001940  00000+0  26235-3 0  9993
2 41790  98.1316 125.3441 0054045 227.0579 132.6092 14.79240206 85990
GOKTURK 1A              
1 41875U 16073A   26062.90365968  .00000398  00000+0  87290-4 0  9993
2 41875  98.1378 319.1623 0001494  94.1707 265.9665 14.62741990493439
